ATLAS CENTAUR 2         
1 00694U 63047A   26088.12727745  .00003034  00000+0  35676-3 0  9997
2 00694  30.3575  87.0065 0547436 251.6060 102.4279 14.12145716134374
THOR AGENA D R/B        
1 00733U 64002A   26088.05867646  .00000218  00000+0  95000-4 0  9999
2 00733  99.1214 102.4516 0032574 200.4630 159.5250 14.34030182241073
SL-3 R/B                
1 00877U 64053B   26087.92180758  .00000209  00000+0  64749-4 0  9997
2 00877  65.0756 274.8505 0080415 286.1773  73.0488 14.61381015269609
SL-8 R/B                
1 02802U 67045B   26088.08989803  .00000304  00000+0  91647-4 0  9990
2 02802  74.0111 311.8596 0064885 313.8293  45.7511 14.45637631 91824
SL-8 R/B                
1 03230U 68040B   26087.87548785  .00003966  00000+0  29303-3 0  9994
2 03230  74.0295 274.4851 0023228  90.6913 269.6937 15.03383897 92890
OAO 2                   
1 03597U 68110A   26088.23749655  .00000291  00000+0  83557-4 0  9998
2 03597  34.9924 156.0797 0005703 348.5775  11.4785 14.47318850 21938
ISIS 1                  
1 03669U 69009A   26088.19001348  .00000163  00000+0  10247-3 0  9994
2 03669  88.4506 153.1804 1707830  49.8257 324.0243 11.30419292350738
SERT 2                  
1 04327U 70009A   26088.12836795 -.00000004  00000+0  50461-4 0  9991
2 04327  99.2784  30.1608 0005633 110.9021 260.3901 13.58731589782532
SL-3 R/B                
1 05118U 71028B   26088.13124427  .00059131  00000+0  64908-3 0  9999
2 05118  81.2368  27.9882 0014520 204.5767 155.4797 15.62847981991709
ASTEX 1                 
1 05560U 71089A   26088.20370877  .00000551  00000+0  14001-3 0  9998
2 05560  92.7091 158.0668 0016369  26.8585 333.3465 14.50789619865139
SL-8 R/B                
1 05730U 71119B   26088.20583675  .00008737  00000+0  45716-3 0  9994
2 05730  73.8857 139.2307 0546459 101.7313 264.5659 14.38232385658295
OAO 3 (COPERNICUS)      
1 06153U 72065A   26087.69562236  .00000341  00000+0  74323-4 0  9997
2 06153  35.0049 189.0282 0007142 312.8882 195.3271 14.60012766848971
